KUIPER-00053            
1 64513U 25134P   26003.60991496  .00004669  00000+0  64106-3 0  9993
2 64513  51.9008 150.8712 0000232  68.8092 291.2895 14.79933041 30570
KUIPER-00054            
1 64514U 25134Q   26003.61475983 -.00000456  00000+0 -30772-4 0  9998
2 64514  51.8983 145.8315 0005780  96.3448 263.8173 14.79726006 30642
KUIPER-00055            
1 64515U 25134R   26003.59130009  .00023488  00000+0  11362-2 0  9993
2 64515  51.8909 125.9470 0001731 284.8049  75.2737 15.18479604 30920
KUIPER-00056            
1 64516U 25134S   26003.60807317  .00001003  00000+0  16054-3 0  9992
2 64516  51.9029 151.9203 0002413 106.3381 253.7847 14.79938388 30563
KUIPER-00057            
1 64517U 25134T   26003.60001371  .00004973  00000+0  68029-3 0  9997
2 64517  51.8974 159.4333 0009340  65.4957 294.6979 14.79955430 30454
KUIPER-00058            
1 64518U 25134U   26003.60706069  .00002186  00000+0  31573-3 0  9992
2 64518  51.9012 153.3255 0004612 102.2678 257.8802 14.79938794 30542
KUIPER-00059            
1 64519U 25134V   26003.61244887  .00006552  00000+0  88666-3 0  9995
2 64519  51.8993 148.3546 0002016 256.2936 103.7802 14.79980448 30610
KUIPER-00060            
1 64520U 25134W   26003.61083293  .00006547  00000+0  88624-3 0  9997
2 64520  51.9026 149.4040 0002129 144.8783 215.2321 14.79967938 30588
